{"type": "FeatureCollection", "features": [ {"type": "Feature", "properties": {"norad_id": 66423, "name": "STARLINK-35618", "group": "last-30-days", "lat": -39.34987437400148, "lon": 46.325703782921686, "alt_km": 417.5258865137994, "timestamp": "2025-12-02T08:59:31.502907+00:00", "meta": {"OBJECT_NAME": "STARLINK-35618", "OBJECT_ID": "2025-259B", "EPOCH": "2025-12-02T04:00:03.998880", "MEAN_MOTION": 15.5050011, "ECCENTRICITY": 0.0001509, "INCLINATION": 42.9996, "RA_OF_ASC_NODE": 109.1756, "ARG_OF_PERICENTER": 259.1553, "MEAN_ANOMALY": 310.2477, "EPHEMERIS_TYPE": 0, "CLASSIFICATION_TYPE": "U", "NORAD_CAT_ID": 66423, "ELEMENT_SET_NO": 999, "REV_AT_EPOCH": 458, "BSTAR": 0.00114, "MEAN_MOTION_DOT": 0.00066924, "MEAN_MOTION_DDOT": 0}, "tle": {"line1": "1 66423U 25259B   25336.16671295  .00066924  00000+0  11400-2 0  9994", "line2": "2 66423  42.9996 109.1756 0001509 259.1553 310.2477 15.50500110  4585"}}, "geometry": {"type": "Point", "coordinates": [46.325703782921686, -39.34987437400148]}}, {"type": "Feature", "properties": {"norad_id": 66424, "name": "STARLINK-35588", "group": "last-30-days", "lat": -38.67893987981688, "lon": 48.738475123862116, "alt_km": 417.5894746695385, "timestamp": "2025-12-02T08:59:31.502917+00:00", "meta": {"OBJECT_NAME": "STARLINK-35588", "OBJECT_ID": "2025-259C", "EPOCH": "2025-12-02T04:00:03.998880", "MEAN_MOTION": 15.50711365, "ECCENTRICITY": 0.0001059, "INCLINATION": 42.9995, "RA_OF_ASC_NODE": 109.1723, "ARG_OF_PERICENTER": 252.4359, "MEAN_ANOMALY": 318.8591, "EPHEMERIS_TYPE": 0, "CLASSIFICATION_TYPE": "U", "NORAD_CAT_ID": 66424, "ELEMENT_SET_NO": 999, "REV_AT_EPOCH": 458, "BSTAR": -0.0046754, "MEAN_MOTION_DOT": -0.00266737, "MEAN_MOTION_DDOT": 0}, "tle": {"line1": "1 66424U 25259C   25336.16671295 -.00266737  00000+0 -46754-2 0  9991", "line2": "2 66424  42.9995 109.1723 0001059 252.4359 318.8591 15.50711365  4586"}}, "geometry": {"type": "Point", "coordinates": [48.738475123862116, -38.67893987981688]}}, {"type": "Feature", "properties": {"norad_id": 66425, "name": "STARLINK-35555", "group": "last-30-days", "lat": -38.016487543499274, "lon": 50.920498131195224, "alt_km": 417.4928197616864, "timestamp": "2025-12-02T08:59:31.502930+00:00", "meta": {"OBJECT_NAME": "STARLINK-35555", "OBJECT_ID": "2025-259D", "EPOCH": "2025-12-02T04:00:03.998880", "MEAN_MOTION": 15.50503819, "ECCENTRICITY": 0.0001427, "INCLINATION": 42.9996, "RA_OF_ASC_NODE": 109.1649, "ARG_OF_PERICENTER": 263.579, "MEAN_ANOMALY": 309.6609, "EPHEMERIS_TYPE": 0, "CLASSIFICATION_TYPE": "U", "NORAD_CAT_ID": 66425, "ELEMENT_SET_NO": 999, "REV_AT_EPOCH": 458, "BSTAR": 0.0011791, "MEAN_MOTION_DOT": 0.0006926, "MEAN_MOTION_DDOT": 0}, "tle": {"line1": "1 66425U 25259D   25336.16671295  .00069260  00000+0  11791-2 0  9995", "line2": "2 66425  42.9996 109.1649 0001427 263.5790 309.6609 15.50503819  4587"}}, "geometry": {"type": "Point", "coordinates": [50.920498131195224, -38.016487543499274]}}, {"type": "Feature", "properties": {"norad_id": 66426, "name": "STARLINK-35589", "group": "last-30-days", "lat": -37.289560359941056, "lon": 53.1381589190903, "alt_km": 417.47920625186725, "timestamp": "2025-12-02T08:59:31.502940+00:00", "meta": {"OBJECT_NAME": "STARLINK-35589", "OBJECT_ID": "2025-259E", "EPOCH": "2025-12-02T04:00:03.998880", "MEAN_MOTION": 15.50495469, "ECCENTRICITY": 0.000148, "INCLINATION": 42.9996, "RA_OF_ASC_NODE": 109.1615, "ARG_OF_PERICENTER": 262.4746, "MEAN_ANOMALY": 312.676, "EPHEMERIS_TYPE": 0, "CLASSIFICATION_TYPE": "U", "NORAD_CAT_ID": 66426, "ELEMENT_SET_NO": 999, "REV_AT_EPOCH": 458, "BSTAR": 0.0011699, "MEAN_MOTION_DOT": 0.0006869, "MEAN_MOTION_DDOT": 0}, "tle": {"line1": "1 66426U 25259E   25336.16671295  .00068690  00000+0  11699-2 0  9999", "line2": "2 66426  42.9996 109.1615 0001480 262.4746 312.6760 15.50495469  4582"}}, "geometry": {"type": "Point", "coordinates": [53.1381589190903, -37.289560359941056]}}, {"type": "Feature", "properties": {"norad_id": 66427, "name": "STARLINK-35611", "group": "last-30-days", "lat": -36.513619564095045, "lon": 55.33260193177263, "alt_km": 417.4511986539519, "timestamp": "2025-12-02T08:59:31.502950+00:00", "meta": {"OBJECT_NAME": "STARLINK-35611", "OBJECT_ID": "2025-259F", "EPOCH": "2025-12-02T04:00:03.998880", "MEAN_MOTION": 15.5049993, "ECCENTRICITY": 0.0001561, "INCLINATION": 42.9996, "RA_OF_ASC_NODE": 109.1558, "ARG_OF_PERICENTER": 258.2864, "MEAN_ANOMALY": 318.7847, "EPHEMERIS_TYPE": 0, "CLASSIFICATION_TYPE": "U", "NORAD_CAT_ID": 66427, "ELEMENT_SET_NO": 999, "REV_AT_EPOCH": 458, "BSTAR": 0.0011259, "MEAN_MOTION_DOT": 0.00066084, "MEAN_MOTION_DDOT": 0}, "tle": {"line1": "1 66427U 25259F   25336.16671295  .00066084  00000+0  11259-2 0  9997", "line2": "2 66427  42.9996 109.1558 0001561 258.2864 318.7847 15.50499930  4583"}}, "geometry": {"type": "Point", "coordinates": [55.33260193177263, -36.513619564095045]}}, {"type": "Feature", "properties": {"norad_id": 66428, "name": "STARLINK-35610", "group": "last-30-days", "lat": -35.70480593781221, "lon": 57.466322813737214, "alt_km": 417.4770454842992, "timestamp": "2025-12-02T08:59:31.502961+00:00", "meta": {"OBJECT_NAME": "STARLINK-35610", "OBJECT_ID": "2025-259G", "EPOCH": "2025-12-02T04:00:03.998880", "MEAN_MOTION": 15.50497173, "ECCENTRICITY": 0.0001445, "INCLINATION": 42.9996, "RA_OF_ASC_NODE": 109.1513, "ARG_OF_PERICENTER": 260.3727, "MEAN_ANOMALY": 318.6114, "EPHEMERIS_TYPE": 0, "CLASSIFICATION_TYPE": "U", "NORAD_CAT_ID": 66428, "ELEMENT_SET_NO": 999, "REV_AT_EPOCH": 458, "BSTAR": 0.0011145, "MEAN_MOTION_DOT": 0.00065397, "MEAN_MOTION_DDOT": 0}, "tle": {"line1": "1 66428U 25259G   25336.16671295  .00065397  00000+0  11145-2 0  9998", "line2": "2 66428  42.9996 109.1513 0001445 260.3727 318.6114 15.50497173  4581"}}, "geometry": {"type": "Point", "coordinates": [57.466322813737214, -35.70480593781221]}}, {"type": "Feature", "properties": {"norad_id": 66429, "name": "STARLINK-35533", "group": "last-30-days", "lat": -34.854698386438805, "lon": 59.56494701963493, "alt_km": 417.4313461627962, "timestamp": "2025-12-02T08:59:31.502973+00:00", "meta": {"OBJECT_NAME": "STARLINK-35533", "OBJECT_ID": "2025-259H", "EPOCH": "2025-12-02T04:00:03.998880", "MEAN_MOTION": 15.50495271, "ECCENTRICITY": 0.0001495, "INCLINATION": 42.9997, "RA_OF_ASC_NODE": 109.1452, "ARG_OF_PERICENTER": 260.2893, "MEAN_ANOMALY": 320.6145, "EPHEMERIS_TYPE": 0, "CLASSIFICATION_TYPE": "U", "NORAD_CAT_ID": 66429, "ELEMENT_SET_NO": 999, "REV_AT_EPOCH": 458, "BSTAR": 0.0011542, "MEAN_MOTION_DOT": 0.00067752, "MEAN_MOTION_DDOT": 0}, "tle": {"line1": "1 66429U 25259H   25336.16671295  .00067752  00000+0  11542-2 0  9997", "line2": "2 66429  42.9997 109.1452 0001495 260.2893 320.6145 15.50495271  4587"}}, "geometry": {"type": "Point", "coordinates": [59.56494701963493, -34.854698386438805]}}, {"type": "Feature", "properties": {"norad_id": 66430, "name": "STARLINK-35470", "group": "last-30-days", "lat": -33.97382561739575, "lon": 61.61121925541509, "alt_km": 417.40764283992485, "timestamp": "2025-12-02T08:59:31.502985+00:00", "meta": {"OBJECT_NAME": "STARLINK-35470", "OBJECT_ID": "2025-259J", "EPOCH": "2025-12-02T04:00:03.998880", "MEAN_MOTION": 15.5048742, "ECCENTRICITY": 0.0001514, "INCLINATION": 42.9997, "RA_OF_ASC_NODE": 109.1416, "ARG_OF_PERICENTER": 261.3053, "MEAN_ANOMALY": 321.5133, "EPHEMERIS_TYPE": 0, "CLASSIFICATION_TYPE": "U", "NORAD_CAT_ID": 66430, "ELEMENT_SET_NO": 999, "REV_AT_EPOCH": 458, "BSTAR": 0.0011418, "MEAN_MOTION_DOT": 0.00066996, "MEAN_MOTION_DDOT": 0}, "tle": {"line1": "1 66430U 25259J   25336.16671295  .00066996  00000+0  11418-2 0  9990", "line2": "2 66430  42.9997 109.1416 0001514 261.3053 321.5133 15.50487420  4585"}}, "geometry": {"type": "Point", "coordinates": [61.61121925541509, -33.97382561739575]}}, {"type": "Feature", "properties": {"norad_id": 66431, "name": "STARLINK-35439", "group": "last-30-days", "lat": -33.05408597157955, "lon": 63.62408370885723, "alt_km": 417.4296523410594, "timestamp": "2025-12-02T08:59:31.502995+00:00", "meta": {"OBJECT_NAME": "STARLINK-35439", "OBJECT_ID": "2025-259K", "EPOCH": "2025-12-02T04:00:03.998880", "MEAN_MOTION": 15.50489253, "ECCENTRICITY": 0.0001505, "INCLINATION": 42.9997, "RA_OF_ASC_NODE": 109.1355, "ARG_OF_PERICENTER": 257.2785, "MEAN_ANOMALY": 327.4581, "EPHEMERIS_TYPE": 0, "CLASSIFICATION_TYPE": "U", "NORAD_CAT_ID": 66431, "ELEMENT_SET_NO": 999, "REV_AT_EPOCH": 458, "BSTAR": 0.0011389, "MEAN_MOTION_DOT": 0.00066832, "MEAN_MOTION_DDOT": 0}, "tle": {"line1": "1 66431U 25259K   25336.16671295  .00066832  00000+0  11389-2 0  9997", "line2": "2 66431  42.9997 109.1355 0001505 257.2785 327.4581 15.50489253  4582"}}, "geometry": {"type": "Point", "coordinates": [63.62408370885723, -33.05408597157955]}}, {"type": "Feature", "properties": {"norad_id": 66432, "name": "STARLINK-35446", "group": "last-30-days", "lat": -32.10551097814881, "lon": 65.58903287324299, "alt_km": 417.37718805841996, "timestamp": "2025-12-02T08:59:31.503005+00:00", "meta": {"OBJECT_NAME": "STARLINK-35446", "OBJECT_ID": "2025-259L", "EPOCH": "2025-12-02T04:00:03.998880", "MEAN_MOTION": 15.50487782, "ECCENTRICITY": 0.000159, "INCLINATION": 42.9996, "RA_OF_ASC_NODE": 109.1302, "ARG_OF_PERICENTER": 256.7158, "MEAN_ANOMALY": 329.9353, "EPHEMERIS_TYPE": 0, "CLASSIFICATION_TYPE": "U", "NORAD_CAT_ID": 66432, "ELEMENT_SET_NO": 999, "REV_AT_EPOCH": 458, "BSTAR": 0.0011077, "MEAN_MOTION_DOT": 0.00064971, "MEAN_MOTION_DDOT": 0}, "tle": {"line1": "1 66432U 25259L   25336.16671295  .00064971  00000+0  11077-2 0  9994", "line2": "2 66432  42.9996 109.1302 0001590 256.7158 329.9353 15.50487782  4585"}}, "geometry": {"type": "Point", "coordinates": [65.58903287324299, -32.10551097814881]}}]}